[{"OBJECT_NAME":"WILDFIRE 10","OBJECT_ID":"2023-133K","EPOCH":"2026-03-09T14:42:38.491200","MEAN_MOTION":13.85595388,"ECCENTRICITY":0.0005198,"INCLINATION":80.9995,"RA_OF_ASC_NODE":103.0888,"ARG_OF_PERICENTER":272.2038,"MEAN_ANOMALY":87.8523,"EPHEMERIS_TYPE":0,"CLASSIFICATION_TYPE":"U","NORAD_CAT_ID":57766,"ELEMENT_SET_NO":999,"REV_AT_EPOCH":12725,"BSTAR":6.2193e-5,"MEAN_MOTION_DOT":8.2e-7,"MEAN_MOTION_DDOT":0},{"OBJECT_NAME":"UNKNOWN","OBJECT_ID":"","EPOCH":"2026-03-08T01:10:49.395648","MEAN_MOTION":13.908817,"ECCENTRICITY":0.0064053,"INCLINATION":100.4509,"RA_OF_ASC_NODE":289.1148,"ARG_OF_PERICENTER":343.476,"MEAN_ANOMALY":16.4307,"EPHEMERIS_TYPE":0,"CLASSIFICATION_TYPE":"U","NORAD_CAT_ID":87448,"ELEMENT_SET_NO":999,"REV_AT_EPOCH":62109,"BSTAR":0.0014131,"MEAN_MOTION_DOT":1.745e-5,"MEAN_MOTION_DDOT":0}]
